{
"type": "FeatureCollection",
"name": "observations",
"crs": { "type": "name", "properties": { "name": "urn:ogc:def:crs:OGC:1.3:CRS84" } },
"features": [
{ "type": "Feature", "properties": { "id": 384433717, "taxon": "Arnica parryi", "observed_on": "2026-07-23", "accuracy_m": 9, "obscured": false, "url": "https://www.inaturalist.org/observations/384433717", "weight": 0.5 }, "geometry": { "type": "Point", "coordinates": [ -117.886836114499999, 49.134990888399997 ] } },
{ "type": "Feature", "properties": { "id": 369170310, "taxon": "Arnica cordifolia", "observed_on": "2026-06-06", "accuracy_m": 4, "obscured": false, "url": "https://www.inaturalist.org/observations/369170310", "weight": 0.2 }, "geometry": { "type": "Point", "coordinates": [ -117.495086666700004, 49.319703333299998 ] } },
{ "type": "Feature", "properties": { "id": 291925619, "taxon": "Erigeron divergens", "observed_on": "2025-06-22", "accuracy_m": 6, "obscured": false, "url": "https://www.inaturalist.org/observations/291925619", "weight": 0.5 }, "geometry": { "type": "Point", "coordinates": [ -117.609035770099993, 49.077762728800003 ] } },
{ "type": "Feature", "properties": { "id": 289123281, "taxon": "Arnica cordifolia", "observed_on": "2025-06-08", "accuracy_m": 2, "obscured": false, "url": "https://www.inaturalist.org/observations/289123281", "weight": 0.2 }, "geometry": { "type": "Point", "coordinates": [ -117.944737517199997, 49.246206992899999 ] } },
{ "type": "Feature", "properties": { "id": 287475941, "taxon": "Erigeron divergens", "observed_on": "2025-06-05", "accuracy_m": 4, "obscured": false, "url": "https://www.inaturalist.org/observations/287475941", "weight": 0.5 }, "geometry": { "type": "Point", "coordinates": [ -117.554436666699999, 49.023527833300001 ] } },
{ "type": "Feature", "properties": { "id": 119774350, "taxon": "Arnica cordifolia", "observed_on": "2022-06-01", "accuracy_m": 2753, "obscured": false, "url": "https://www.inaturalist.org/observations/119774350", "weight": 0.2 }, "geometry": { "type": "Point", "coordinates": [ -117.4697802588, 49.0381774138 ] } },
{ "type": "Feature", "properties": { "id": 87454625, "taxon": "Arnica parryi", "observed_on": "2021-07-15", "accuracy_m": 157, "obscured": false, "url": "https://www.inaturalist.org/observations/87454625", "weight": 0.5 }, "geometry": { "type": "Point", "coordinates": [ -117.490887687699995, 49.322644566599998 ] } },
{ "type": "Feature", "properties": { "id": 83211287, "taxon": "Arnica latifolia", "observed_on": "2021-06-12", "accuracy_m": 76, "obscured": false, "url": "https://www.inaturalist.org/observations/83211287", "weight": 1.0 }, "geometry": { "type": "Point", "coordinates": [ -117.609370967700002, 49.327030708 ] } },
{ "type": "Feature", "properties": { "id": 83209119, "taxon": "Arnica fulgens", "observed_on": "2021-06-12", "accuracy_m": 55, "obscured": false, "url": "https://www.inaturalist.org/observations/83209119", "weight": 0.5 }, "geometry": { "type": "Point", "coordinates": [ -117.611841815800005, 49.326517009500002 ] } },
{ "type": "Feature", "properties": { "id": 53425910, "taxon": "Arnica latifolia", "observed_on": "2020-07-17", "accuracy_m": 4, "obscured": false, "url": "https://www.inaturalist.org/observations/53425910", "weight": 1.0 }, "geometry": { "type": "Point", "coordinates": [ -117.85913833, 49.16633333 ] } },
{ "type": "Feature", "properties": { "id": 53419842, "taxon": "Arnica latifolia", "observed_on": "2020-07-17", "accuracy_m": 4, "obscured": false, "url": "https://www.inaturalist.org/observations/53419842", "weight": 1.0 }, "geometry": { "type": "Point", "coordinates": [ -117.85918333, 49.1664805 ] } },
{ "type": "Feature", "properties": { "id": 50508136, "taxon": "Arnica cordifolia", "observed_on": "2020-06-21", "accuracy_m": 85, "obscured": false, "url": "https://www.inaturalist.org/observations/50508136", "weight": 0.2 }, "geometry": { "type": "Point", "coordinates": [ -117.264595, 49.18341167 ] } },
{ "type": "Feature", "properties": { "id": 50361580, "taxon": "Arnica latifolia", "observed_on": "2020-06-19", "accuracy_m": 742, "obscured": false, "url": "https://www.inaturalist.org/observations/50361580", "weight": 1.0 }, "geometry": { "type": "Point", "coordinates": [ -117.766835247700001, 49.196107021099998 ] } },
{ "type": "Feature", "properties": { "id": 29485254, "taxon": "Arnica cordifolia", "observed_on": "2019-07-22", "accuracy_m": 177, "obscured": false, "url": "https://www.inaturalist.org/observations/29485254", "weight": 0.2 }, "geometry": { "type": "Point", "coordinates": [ -117.940086727500002, 49.258531142 ] } },
{ "type": "Feature", "properties": { "id": 29398221, "taxon": "Arnica latifolia", "observed_on": "2019-07-23", "accuracy_m": 7, "obscured": false, "url": "https://www.inaturalist.org/observations/29398221", "weight": 1.0 }, "geometry": { "type": "Point", "coordinates": [ -117.89199468, 49.15329086 ] } }
]
}
