{
  "type": "FeatureCollection",
  "name": "west_kootenays_rossland_castlegar_salmo",
  "crs": {
    "type": "name",
    "properties": {
      "name": "urn:ogc:def:crs:OGC:1.3/CRS84"
    }
  },
  "features": [
    {
      "type": "Feature",
      "properties": {
        "id": "west_kootenays",
        "label": "Rossland / Castlegar / Salmo",
        "note": "Swap this file (or add another) to re-target the pipeline at a new region."
      },
      "geometry": {
        "type": "Polygon",
        "coordinates": [
          [
            [
              -118.05,
              49.0
            ],
            [
              -117.25,
              49.0
            ],
            [
              -117.25,
              49.45
            ],
            [
              -118.05,
              49.45
            ],
            [
              -118.05,
              49.0
            ]
          ]
        ]
      }
    }
  ]
}